{
  "type": "FeatureCollection",
  "features": [
    {
      "type": "Feature",
      "properties": {
        "norad_id": 49336,
        "name": "QZS-1R (QZSS/PRN 196)",
        "group": "gnss",
        "lat": -34.57260041289355,
        "lon": 16.65448249102903,
        "alt_km": 32771.22731670817,
        "timestamp": "2025-12-02T10:50:47.516825+00:00",
        "meta_object_name": "QZS-1R (QZSS/PRN 196)",
        "meta_object_id": "2021-096A",
        "meta_epoch": "2025-12-01T04:08:48.475392",
        "meta_mean_motion": 1.0026089,
        "meta_eccentricity": 0.0753298,
        "meta_inclination": 37.0524,
        "meta_ra_of_asc_node": 82.5332,
        "meta_arg_of_pericenter": 271.0716,
        "meta_mean_anomaly": 274.2635,
        "meta_ephemeris_type": 0,
        "meta_classification_type": "U",
        "meta_norad_cat_id": 49336,
        "meta_element_set_no": 999,
        "meta_rev_at_epoch": 1502,
        "meta_bstar": 0,
        "meta_mean_motion_dot": -2.17e-06,
        "meta_mean_motion_ddot": 0,
        "tle_line1": "1 49336U 21096A   25335.17278328 -.00000217  00000+0  00000+0 0  9998",
        "tle_line2": "2 49336  37.0524  82.5332 0753298 271.0716 274.2635  1.00260890 15022"
      },
      "geometry": {
        "type": "Point",
        "coordinates": [
          16.65448249102903,
          -34.57260041289355
        ]
      }
    },
    {
      "type": "Feature",
      "properties": {
        "norad_id": 49809,
        "name": "GSAT0223 (GALILEO 27)",
        "group": "gnss",
        "lat": -17.364418771617693,
        "lon": -24.62550666244651,
        "alt_km": 23224.789015890452,
        "timestamp": "2025-12-02T10:50:47.516843+00:00",
        "meta_object_name": "GSAT0223 (GALILEO 27)",
        "meta_object_id": "2021-116A",
        "meta_epoch": "2025-12-01T07:17:38.668992",
        "meta_mean_motion": 1.70475545,
        "meta_eccentricity": 0.0004753,
        "meta_inclination": 57.2221,
        "meta_ra_of_asc_node": 347.023,
        "meta_arg_of_pericenter": 247.908,
        "meta_mean_anomaly": 106.7158,
        "meta_ephemeris_type": 0,
        "meta_classification_type": "U",
        "meta_norad_cat_id": 49809,
        "meta_element_set_no": 999,
        "meta_rev_at_epoch": 2480,
        "meta_bstar": 0,
        "meta_mean_motion_dot": -5.9e-07,
        "meta_mean_motion_ddot": 0,
        "tle_line1": "1 49809U 21116A   25335.30391978 -.00000059  00000+0  00000+0 0  9992",
        "tle_line2": "2 49809  57.2221 347.0230 0004753 247.9080 106.7158  1.70475545 24809"
      },
      "geometry": {
        "type": "Point",
        "coordinates": [
          -24.62550666244651,
          -17.364418771617693
        ]
      }
    },
    {
      "type": "Feature",
      "properties": {
        "norad_id": 49810,
        "name": "GSAT0224 (GALILEO 28)",
        "group": "gnss",
        "lat": 57.159800550183625,
        "lon": 80.2423040540932,
        "alt_km": 23225.903364866423,
        "timestamp": "2025-12-02T10:50:47.516871+00:00",
        "meta_object_name": "GSAT0224 (GALILEO 28)",
        "meta_object_id": "2021-116B",
        "meta_epoch": "2025-11-22T08:02:15.403200",
        "meta_mean_motion": 1.70476295,
        "meta_eccentricity": 0.00038769,
        "meta_inclination": 57.2249,
        "meta_ra_of_asc_node": 347.264,
        "meta_arg_of_pericenter": 247.2257,
        "meta_mean_anomaly": 115.5015,
        "meta_ephemeris_type": 0,
        "meta_classification_type": "U",
        "meta_norad_cat_id": 49810,
        "meta_element_set_no": 999,
        "meta_rev_at_epoch": 2468,
        "meta_bstar": 0,
        "meta_mean_motion_dot": -6.8e-07,
        "meta_mean_motion_ddot": 0,
        "tle_line1": "1 49810U 21116B   25326.33490050 -.00000068  00000+0  00000+0 0  9998",
        "tle_line2": "2 49810  57.2249 347.2640 0003876 247.2257 115.5015  1.70476295 24681"
      },
      "geometry": {
        "type": "Point",
        "coordinates": [
          80.2423040540932,
          57.159800550183625
        ]
      }
    },
    {
      "type": "Feature",
      "properties": {
        "norad_id": 52984,
        "name": "COSMOS 2557 (706K)",
        "group": "gnss",
        "lat": -25.21929129272529,
        "lon": -51.63569923709199,
        "alt_km": 19113.533216993434,
        "timestamp": "2025-12-02T10:50:47.516889+00:00",
        "meta_object_name": "COSMOS 2557 (706K)",
        "meta_object_id": "2022-075A",
        "meta_epoch": "2025-12-01T01:56:28.375008",
        "meta_mean_motion": 2.13101767,
        "meta_eccentricity": 0.00137561,
        "meta_inclination": 64.4163,
        "meta_ra_of_asc_node": 321.4618,
        "meta_arg_of_pericenter": 276.3647,
        "meta_mean_anomaly": 83.4921,
        "meta_ephemeris_type": 0,
        "meta_classification_type": "U",
        "meta_norad_cat_id": 52984,
        "meta_element_set_no": 999,
        "meta_rev_at_epoch": 2649,
        "meta_bstar": 0,
        "meta_mean_motion_dot": -2.7e-07,
        "meta_mean_motion_ddot": 0,
        "tle_line1": "1 52984U 22075A   25335.08088397 -.00000027  00000+0  00000+0 0  9993",
        "tle_line2": "2 52984  64.4163 321.4618 0013756 276.3647  83.4921  2.13101767 26492"
      },
      "geometry": {
        "type": "Point",
        "coordinates": [
          -51.63569923709199,
          -25.21929129272529
        ]
      }
    },
    {
      "type": "Feature",
      "properties": {
        "norad_id": 54031,
        "name": "COSMOS 2559 (707K)",
        "group": "gnss",
        "lat": 57.65231876516713,
        "lon": 92.24960287908692,
        "alt_km": 19119.449358384587,
        "timestamp": "2025-12-02T10:50:47.516906+00:00",
        "meta_object_name": "COSMOS 2559 (707K)",
        "meta_object_id": "2022-130A",
        "meta_epoch": "2025-11-30T21:36:02.630880",
        "meta_mean_motion": 2.13101267,
        "meta_eccentricity": 0.0012098,
        "meta_inclination": 64.3886,
        "meta_ra_of_asc_node": 321.558,
        "meta_arg_of_pericenter": 192.8205,
        "meta_mean_anomaly": 167.1632,
        "meta_ephemeris_type": 0,
        "meta_classification_type": "U",
        "meta_norad_cat_id": 54031,
        "meta_element_set_no": 999,
        "meta_rev_at_epoch": 2446,
        "meta_bstar": 0,
        "meta_mean_motion_dot": -2.6e-07,
        "meta_mean_motion_ddot": 0,
        "tle_line1": "1 54031U 22130A   25334.90003045 -.00000026  00000+0  00000+0 0  9996",
        "tle_line2": "2 54031  64.3886 321.5580 0012098 192.8205 167.1632  2.13101267 24466"
      },
      "geometry": {
        "type": "Point",
        "coordinates": [
          92.24960287908692,
          57.65231876516713
        ]
      }
    },
    {
      "type": "Feature",
      "properties": {
        "norad_id": 54377,
        "name": "COSMOS 2564 (761)",
        "group": "gnss",
        "lat": -43.913577139979274,
        "lon": 46.26839358193079,
        "alt_km": 19114.738300071083,
        "timestamp": "2025-12-02T10:50:47.516923+00:00",
        "meta_object_name": "COSMOS 2564 (761)",
        "meta_object_id": "2022-161A",
        "meta_epoch": "2025-12-01T05:07:31.965888",
        "meta_mean_motion": 2.13101951,
        "meta_eccentricity": 0.0008738,
        "meta_inclination": 64.7376,
        "meta_ra_of_asc_node": 199.2819,
        "meta_arg_of_pericenter": 206.5464,
        "meta_mean_anomaly": 153.5009,
        "meta_ephemeris_type": 0,
        "meta_classification_type": "U",
        "meta_norad_cat_id": 54377,
        "meta_element_set_no": 999,
        "meta_rev_at_epoch": 2341,
        "meta_bstar": 0,
        "meta_mean_motion_dot": 1e-06,
        "meta_mean_motion_ddot": 0,
        "tle_line1": "1 54377U 22161A   25335.21356442  .00000100  00000+0  00000+0 0  9992",
        "tle_line2": "2 54377  64.7376 199.2819 0008738 206.5464 153.5009  2.13101951 23419"
      },
      "geometry": {
        "type": "Point",
        "coordinates": [
          46.26839358193079,
          -43.913577139979274
        ]
      }
    },
    {
      "type": "Feature",
      "properties": {
        "norad_id": 55268,
        "name": "GPS BIII-6  (PRN 28)",
        "group": "gnss",
        "lat": -35.37889577640201,
        "lon": 126.51917648569822,
        "alt_km": 20180.59646559433,
        "timestamp": "2025-12-02T10:50:47.516940+00:00",
        "meta_object_name": "GPS BIII-6  (PRN 28)",
        "meta_object_id": "2023-009A",
        "meta_epoch": "2025-11-30T00:32:38.315616",
        "meta_mean_motion": 2.00556632,
        "meta_eccentricity": 0.00034826,
        "meta_inclination": 55.1054,
        "meta_ra_of_asc_node": 156.3454,
        "meta_arg_of_pericenter": 359.6796,
        "meta_mean_anomaly": 1.4566,
        "meta_ephemeris_type": 0,
        "meta_classification_type": "U",
        "meta_norad_cat_id": 55268,
        "meta_element_set_no": 999,
        "meta_rev_at_epoch": 2125,
        "meta_bstar": 0,
        "meta_mean_motion_dot": 1.29e-06,
        "meta_mean_motion_ddot": 0,
        "tle_line1": "1 55268U 23009A   25334.02266569  .00000129  00000+0  00000+0 0  9993",
        "tle_line2": "2 55268  55.1054 156.3454 0003482 359.6796   1.4566  2.00556632 21259"
      },
      "geometry": {
        "type": "Point",
        "coordinates": [
          126.51917648569822,
          -35.37889577640201
        ]
      }
    }
  ]
}